IRIDIUM 7 [-]           
1 24793U 97020B   24081.86752246  .00000784  00000+0  26807-3 0  9992
2 24793  86.4024   6.3854 0002190  92.8190 267.3257 14.35123409407003
IRIDIUM 5 [-]           
1 24795U 97020D   24082.08487689  .00005937  00000+0  58089-3 0  9997
2 24795  86.3884 290.7624 0122666 312.3868  46.7023 14.86586860418153
IRIDIUM 4 [-]           
1 24796U 97020E   24082.20917630  .00000887  00000+0  29860-3 0  9990
2 24796  86.4020   3.4230 0002038  88.3187 271.8243 14.36041664407610
IRIDIUM 914 [-]         
1 24836U 97030A   24082.33330759  .00000999  00000+0  31181-3 0  9994
2 24836  86.3993  13.2909 0000402  68.3312 291.7930 14.39882750404181
IRIDIUM 16 [-]          
1 24841U 97030F   24082.39070416  .00001085  00000+0  35425-3 0  9999
2 24841  86.4060  35.0094 0004232  97.2130 262.9549 14.37767545402326
IRIDIUM 911 [-]         
1 24842U 97030G   24082.41963717  .00001389  00000+0  38109-3 0  9997
2 24842  86.4488  34.1975 0015023 154.9221 205.2715 14.46367622409730
IRIDIUM 17 [-]          
1 24870U 97034B   24082.44424263  .00001049  00000+0  34862-3 0  9998
2 24870  86.3922  64.6145 0003724  73.4752 286.6854 14.36854631398698
IRIDIUM 920 [-]         
1 24871U 97034C   24081.91273006  .00001031  00000+0  31707-3 0  9993
2 24871  86.3977  45.1119 0013220 126.6472 233.5945 14.40579974401445
